{
  "type": "FeatureCollection",
  "generator": "overpass-turbo",
  "copyright": "The data included in this document is from www.openstreetmap.org. The data is made available under ODbL.",
  "timestamp": "2024-12-05T10:49:35Z",
  "features": [
    {
      "type": "Feature",
      "properties": {
        "@id": "way/1006761197",
        "building": "roof",
        "building:levels": "1",
        "name": "Mekong River",
        "tourism": "attraction"
      },
      "geometry": {
        "type": "Polygon",
        "coordinates": [
          [
            [
              103.792072,
              1.4040457
            ],
            [
              103.7920039,
              1.4040938
            ],
            [
              103.7920991,
              1.404193
            ],
            [
              103.7919536,
              1.4042493
            ],
            [
              103.7918666,
              1.4041087
            ],
            [
              103.7918004,
              1.4040018
            ],
            [
              103.7917833,
              1.4039785
            ],
            [
              103.7919269,
              1.4037834
            ],
            [
              103.7919464,
              1.4037977
            ],
            [
              103.791967,
              1.4038082
            ],
            [
              103.7919651,
              1.4038309
            ],
            [
              103.7919672,
              1.4038499
            ],
            [
              103.791969,
              1.4038719
            ],
            [
              103.7918429,
              1.4039729
            ],
            [
              103.7918966,
              1.4040589
            ],
            [
              103.7919556,
              1.4040294
            ],
            [
              103.7920274,
              1.4039785
            ],
            [
              103.7921267,
              1.4039431
            ],
            [
              103.7921371,
              1.4039738
            ],
            [
              103.7921474,
              1.4040043
            ],
            [
              103.7920643,
              1.4040348
            ],
            [
              103.792072,
              1.4040457
            ]
          ]
        ]
      },
      "id": "way/1006761197"
    }
  ]
}